DONGPO 08               
1 54686U 22167E   24298.58740075  .00022714  00000+0  10896-2 0  9999
2 54686  97.6267  81.1586 0011334  99.2625 260.9892 15.18838906103720
2022-167F               
1 54687U 22167F   24298.58563439  .00042523  00000+0  16899-2 0  9996
2 54687  97.6075  81.3003 0006831  65.0461 295.1486 15.25158248103786
DONGPO 10               
1 54689U 22167H   24298.55959545  .00022468  00000+0  10746-2 0  9993
2 54689  97.6347  81.8520 0010766  65.6459 294.5897 15.18950275103729
JILIN-1 GAOFEN 03D48    
1 54695U 22167P   24298.58055457  .00021918  00000+0  10537-2 0  9999
2 54695  97.6282  81.4239 0011734  67.1225 293.1247 15.18767380103739
STAR VIBE               
1 55009U 23001A   24298.50464227  .00021024  00000+0  87207-3 0  9995
2 55009  97.4072 354.3868 0009836 100.1709 260.0638 15.23846779100177
BRO-8                   
1 55011U 23001C   24298.49415068  .00014342  00000+0  62592-3 0  9990
2 55011  97.4144 354.6286 0011256 102.6180 257.6316 15.22192447100154
CONNECTA T1.2           
1 55012U 23001D   24298.14862563  .00016754  00000+0  64193-3 0  9997
2 55012  97.4150 356.1052 0011362  95.1813 265.0722 15.26539266100216
BIRKELAND               
1 55015U 23001G   24298.49433087  .00017458  00000+0  68457-3 0  9992
2 55015  97.4162 356.8047 0010428  92.6570 267.5862 15.25769124100294
ION SCV-008             
1 55051U 23001AU  24298.49869972  .00013867  00000+0  68990-3 0  9990
2 55051  97.6029  17.5306 0017941 318.2905  41.6959 15.17592837 99878
ION SCV-007             
1 55060U 23001BD  24298.60370518  .00001683  00000+0  24918-3 0  9991
2 55060  97.9837 359.9980 0013824 111.7341 248.5341 14.76397939 97595
TAUSAT-2                
1 55073U 23001BS  24297.44032031  .00062534  00000+0  12862-2 0  9997
2 55073  97.4062   1.5402 0009229  51.3381 308.8693 15.45708409100545
FLOCK 4Y-23             
1 55080U 23001BZ  24298.44356832  .00045294  00000+0  12423-2 0  9991
2 55080  97.4096   0.9223 0011839  69.7868 290.4649 15.37069646100593
HUYGENS                 
1 55093U 23001CN  24298.49441298  .00014476  00000+0  56748-3 0  9998
2 55093  97.4103 356.6665 0014350  72.9812 287.2997 15.25772593100312
BDSAT-2                 
1 55098U 23001CT  24298.14702752  .00101714  00000+0  17924-2 0  9994
2 55098  97.4079   3.3135 0007918  58.0918 302.1102 15.50027567100701
SHARJAHSAT-1            
1 55104U 23001CZ  24298.43475777  .00021178  00000+0  83388-3 0  9991
2 55104  97.4089 355.0961 0011043 100.3172 259.9311 15.25582951100202
2023-003A               
1 55133U 23003A   24298.55557877  .00042096  00000+0  13063-2 0  9994
2 55133  97.2086   8.4530 0005102 108.8742 251.3055 15.33255348 99445
EOS-7                   
1 55562U 23019A   24298.53539422  .00118265  00000+0  98869-3 0  9991
2 55562  37.1740 122.9355 0005383 333.9546  26.0950 15.68709750 96450
HORUS 1                 
1 55690U 23025A   24298.53274437  .00019314  00000+0  81484-3 0  9992
2 55690  97.4103  12.3236 0002732 160.4407 199.6935 15.23332335 92603
HORUS 2                 
1 55844U 23032A   24298.50168490  .00020121  00000+0  84996-3 0  9998
2 55844  97.4161  12.5908 0000830 308.3323  51.7839 15.23283774 90031
GLOBAL-19               
1 55982U 23041B   24298.17584423  .00016040  00000+0  42811-3 0  9997
2 55982  42.0075 108.3774 0008315 293.3543  66.6422 15.37786244 89353
DEWASAT-2               
1 56180U 23054C   24298.50982583  .00090855  00000+0  10134-2 0  9996
2 56180  97.3479 200.1948 0006278  81.1395 279.0573 15.62486717 86234
KILICSAT                
1 56181U 23054D   24298.52807167  .00126669  00000+0  17705-2 0  9997
2 56181  97.3381 197.4987 0008789  73.7377 286.4845 15.56365918 86094
SSS-2B                  
1 56184U 23054G   24298.52405713  .00191540  00000+0  20326-2 0  9994
2 56184  97.3450 199.0587 0008988  76.9014 283.3247 15.63416029 86160
BRO-9                   
1 56185U 23054H   24298.50861760  .00041642  00000+0  11995-2 0  9990
2 56185  97.3431 192.8580 0009159  76.5101 283.7163 15.35586252 85792
ION SCV-010             
1 56192U 23054Q   24298.58104729  .00012681  00000+0  62561-3 0  9998
2 56192  97.4478 185.1342 0018588 138.9533 221.3103 15.17892392 84810
GHOST-1                 
1 56195U 23054T   24298.44706159  .00030053  00000+0  82685-3 0  9993
2 56195  97.3443 193.3989 0010167  66.3267 293.9043 15.37080527 85815
GHOST-2                 
1 56197U 23054V   24298.43866214  .00037066  00000+0  91583-3 0  9991
2 56197  97.3436 194.4232 0010571  64.3853 295.8484 15.40340439 85882
TOMORROW-R1             
1 56199U 23054X   24298.46909760  .00073839  00000+0  14092-2 0  9997
2 56199  97.3465 196.5280 0008911  60.7239 299.4901 15.47842594 86011
FACSAT-2                
1 56205U 23054AD  24298.53867853  .00045150  00000+0  10062-2 0  9997
2 56205  97.3487 196.4488 0012283  53.9476 306.2907 15.43382840 86007
CONNECTA T2.1           
1 56210U 23054AJ  24298.60645220  .00045166  00000+0  10291-2 0  9994
2 56210  97.3407 195.3359 0011095  51.8466 308.3780 15.42735989 85978
DISCO-1                 
1 56222U 23054AW  24298.16779566  .00122508  00000+0  16505-2 0  9999
2 56222  97.3380 197.3900 0009745  63.9981 296.2277 15.57364258 86059
REVELA                  
1 56224U 23054AY  24298.48528232  .00170357  00000+0  18495-2 0  9993
2 56224  97.3406 199.3624 0007453  65.9134 294.2903 15.62911948 86202
TELEOS-2                
1 56310U 23057C   24296.09532780  .00020451  00000+0  16873-2 0  9997
2 56310   9.9888 275.4354 0000807 245.4708 114.5421 14.96519180 82310
SNIPE 4                 
1 56744U 23072B   24298.53636564  .00023697  00000+0  11541-2 0  9993
2 56744  97.5471 124.4537 0009626 306.5717  53.4630 15.18318234 78269
SNIPE 2                 
1 56745U 23072C   24298.58798534  .00024196  00000+0  11739-2 0  9999
2 56745  97.5612 125.1675 0006616 325.1163  34.9636 15.18469059 78280
2023-072G               
1 56749U 23072G   24298.56508138  .00024984  00000+0  11372-2 0  9998
2 56749  97.5269 124.1854 0007159 334.1697  25.9179 15.20668011 78335
OTTER PUP               
1 56933U 23084B   24298.34463242  .00032460  00000+0  11163-2 0  9994
2 56933  97.5494  58.6370 0005680 251.7691 108.2931 15.30002080 75864
GEISAT PRECURSOR        
1 56934U 23084C   24298.47093670  .00013709  00000+0  59023-3 0  9996
2 56934  97.5551  56.8041 0006348 304.7427  55.3211 15.22708146 75738
EIVE                    
1 56937U 23084F   24298.53466532  .00080783  00000+0  20722-2 0  9996
2 56937  97.5468  60.1149 0005007 275.4163  84.6510 15.39028991 75971
LAYAN-23                
1 56939U 23084H   24298.52824983  .00085951  00000+0  20684-2 0  9994
2 56939  97.5460  60.9027 0005233 265.5817  94.4832 15.40954136 76029
AFRL-XVI                
1 56942U 23084L   24298.34670057  .00041673  00000+0  11605-2 0  9995
2 56942  97.5521  60.6250 0005217 279.8620  80.2035 15.36672632 75972
BLACKJACK ACES-3        
1 56950U 23084U   24296.92440641  .00021211  00000+0  83454-3 0  9998
2 56950  97.5557  56.8514 0007881 277.7337  82.3006 15.25640107 75602
QPS-SAR-6 (AMATERU-III) 
1 56951U 23084V   24298.53353689  .00408872  00000+0  30905-2 0  9997
2 56951  97.5389  65.2406 0008934 265.1877  94.8365 15.71191262 76308
BLACKJACK ACES-4        
1 56952U 23084W   24298.36884377  .00038776  00000+0  12934-2 0  9996
2 56952  97.5536  58.8545 0008213 268.2649  91.7651 15.30937123 75869
BLACKJACK ACES-2        
1 56955U 23084Z   24298.54330305  .00031377  00000+0  12381-2 0  9992
2 56955  97.5547  58.4819 0008141 277.5008  82.5304 15.25458215 75852
BLACKJACK ACES-1        
1 56956U 23084AA  24298.58402987  .00033678  00000+0  13390-2 0  9990
2 56956  97.5512  58.5157 0008553 275.3453  84.6809 15.25185080 25583
ION SCV-011             
1 56957U 23084AB  24298.39391051  .00011858  00000+0  57739-3 0  9991
2 56957  98.0818  65.1472 0008302 319.0819  40.9789 15.18514843 74285
GHOST-3                 
1 56958U 23084AC  24298.33928979  .00021202  00000+0  85636-3 0  9992
2 56958  97.5554  57.4297 0009602 282.7975  77.2189 15.24747624 75762
TOMORROW-R2             
1 56962U 23084AG  24298.33191421  .00029283  00000+0  10526-2 0  9993
2 56962  97.5527  58.4366 0009137 275.8964  84.1234 15.28554767 75833
AFR-1                   
1 56964U 23084AJ  24298.52640357  .00011669  00000+0  54711-3 0  9997
2 56964  97.5583  56.3735 0011413 287.0780  72.9204 15.19784214 75705
DROID.001               
1 56965U 23084AK  24298.33527446  .00034786  00000+0  12102-2 0  9992
2 56965  97.5518  58.6300 0009163 270.3658  89.6531 15.29586316 75853
MUSAT1                  
1 56967U 23084AM  24298.33476311  .00211512  00000+0  24349-2 0  9998
2 56967  97.5384  64.7323 0008277 256.6765 103.3569 15.61250531 76264
AII-DELTA               
1 56987U 23084BH  24298.53456248  .00136227  00000+0  23668-2 0  9991
2 56987  97.5393  63.2264 0008677 245.7552 114.2793 15.50293404 76197
SPEI SATELLES           
1 56991U 23084BT  24298.32113197  .00074097  00000+0  17573-2 0  9990
2 56991  97.5447  61.2019 0007247 250.3212 109.7253 15.41434834 76032
URESAT-1                
1 56992U 23084BU  24298.28499912  .00103920  00000+0  21646-2 0  9992
2 56992  97.5394  60.3993 0010059 278.8366  81.1743 15.45157811 75986
MRC-100                 
1 56993U 23084BV  24298.28169876  .00153709  00000+0  25208-2 0  9994
2 56993  97.5376  61.5020 0009909 274.4603  85.5517 15.51846471 76060
METEOR-M2 3             
1 57166U 23091A   24298.55011040  .00000109  00000+0  66748-4 0  9995
2 57166  98.6973 351.9672 0005021 110.4524 249.7194 14.23940864 69032
STRATOSAT-TK 1 (RS52S)  
1 57167U 23091B   24298.50043035  .00042063  00000+0  19480-2 0  9994
2 57167  97.5939 351.6956 0013673  38.2109 322.0092 15.19893047 73148
UMKA 1 (RS40S)          
1 57172U 23091G   24298.52459891  .00013233  00000+0  80627-3 0  9992
2 57172  97.5954 349.3743 0016949  44.3363 315.9221 15.10384546 72995
